[{"OBJECT_NAME":"QIANFAN-69","OBJECT_ID":"2025-016Q","EPOCH":"2026-03-05T06:41:39.073344","MEAN_MOTION":13.51005337,"ECCENTRICITY":0.00179538,"INCLINATION":88.9667,"RA_OF_ASC_NODE":94.4087,"ARG_OF_PERICENTER":105.4986,"MEAN_ANOMALY":254.815,"EPHEMERIS_TYPE":0,"CLASSIFICATION_TYPE":"U","NORAD_CAT_ID":62799,"ELEMENT_SET_NO":999,"REV_AT_EPOCH":5842,"BSTAR":7.8634333e-5,"MEAN_MOTION_DOT":6.3e-7,"MEAN_MOTION_DDOT":0},{"OBJECT_NAME":"QIANFAN-70","OBJECT_ID":"2025-016R","EPOCH":"2026-03-05T05:18:38.312064","MEAN_MOTION":13.50997067,"ECCENTRICITY":0.00175735,"INCLINATION":88.9688,"RA_OF_ASC_NODE":94.5707,"ARG_OF_PERICENTER":97.2075,"MEAN_ANOMALY":263.1075,"EPHEMERIS_TYPE":0,"CLASSIFICATION_TYPE":"U","NORAD_CAT_ID":62800,"ELEMENT_SET_NO":999,"REV_AT_EPOCH":5837,"BSTAR":5.950119e-5,"MEAN_MOTION_DOT":5.1e-7,"MEAN_MOTION_DDOT":0},{"OBJECT_NAME":"QIANFAN-71","OBJECT_ID":"2025-016S","EPOCH":"2026-03-05T05:12:37.960128","MEAN_MOTION":13.50996564,"ECCENTRICITY":0.00178411,"INCLINATION":88.9682,"RA_OF_ASC_NODE":94.5455,"ARG_OF_PERICENTER":108.8042,"MEAN_ANOMALY":251.5046,"EPHEMERIS_TYPE":0,"CLASSIFICATION_TYPE":"U","NORAD_CAT_ID":62801,"ELEMENT_SET_NO":999,"REV_AT_EPOCH":5837,"BSTAR":5.8080191e-5,"MEAN_MOTION_DOT":5.0e-7,"MEAN_MOTION_DDOT":0},{"OBJECT_NAME":"QIANFAN-72","OBJECT_ID":"2025-016T","EPOCH":"2026-03-05T05:36:20.795328","MEAN_MOTION":13.50996237,"ECCENTRICITY":0.00210407,"INCLINATION":88.9672,"RA_OF_ASC_NODE":94.5492,"ARG_OF_PERICENTER":115.4996,"MEAN_ANOMALY":244.8334,"EPHEMERIS_TYPE":0,"CLASSIFICATION_TYPE":"U","NORAD_CAT_ID":62802,"ELEMENT_SET_NO":999,"REV_AT_EPOCH":5836,"BSTAR":3.85099e-5,"MEAN_MOTION_DOT":3.7e-7,"MEAN_MOTION_DDOT":0},{"OBJECT_NAME":"QIANFAN-73","OBJECT_ID":"2025-046A","EPOCH":"2026-03-05T06:15:01.162368","MEAN_MOTION":13.509983,"ECCENTRICITY":0.00131564,"INCLINATION":88.976,"RA_OF_ASC_NODE":311.5007,"ARG_OF_PERICENTER":244.1442,"MEAN_ANOMALY":115.8353,"EPHEMERIS_TYPE":0,"CLASSIFICATION_TYPE":"U","NORAD_CAT_ID":63159,"ELEMENT_SET_NO":999,"REV_AT_EPOCH":5855,"BSTAR":0.00028194929,"MEAN_MOTION_DOT":1.94e-6,"MEAN_MOTION_DDOT":0},{"OBJECT_NAME":"QIANFAN-74","OBJECT_ID":"2025-046B","EPOCH":"2026-03-05T05:51:24.231744","MEAN_MOTION":13.50998185,"ECCENTRICITY":0.00018929,"INCLINATION":88.976,"RA_OF_ASC_NODE":311.3912,"ARG_OF_PERICENTER":78.3634,"MEAN_ANOMALY":281.7729,"EPHEMERIS_TYPE":0,"CLASSIFICATION_TYPE":"U","NORAD_CAT_ID":63160,"ELEMENT_SET_NO":999,"REV_AT_EPOCH":5861,"BSTAR":0.00031807778,"MEAN_MOTION_DOT":2.17e-6,"MEAN_MOTION_DDOT":0},{"OBJECT_NAME":"QIANFAN-75","OBJECT_ID":"2025-046C","EPOCH":"2026-03-05T05:32:52.827936","MEAN_MOTION":13.51001204,"ECCENTRICITY":0.00143346,"INCLINATION":88.9763,"RA_OF_ASC_NODE":311.6273,"ARG_OF_PERICENTER":248.0857,"MEAN_ANOMALY":111.8771,"EPHEMERIS_TYPE":0,"CLASSIFICATION_TYPE":"U","NORAD_CAT_ID":63161,"ELEMENT_SET_NO":999,"REV_AT_EPOCH":5848,"BSTAR":0.00010524705,"MEAN_MOTION_DOT":8.0e-7,"MEAN_MOTION_DDOT":0},{"OBJECT_NAME":"QIANFAN-76","OBJECT_ID":"2025-046D","EPOCH":"2026-03-05T05:27:35.786592","MEAN_MOTION":13.51014473,"ECCENTRICITY":0.00118778,"INCLINATION":88.9761,"RA_OF_ASC_NODE":311.6077,"ARG_OF_PERICENTER":248.6259,"MEAN_ANOMALY":111.3625,"EPHEMERIS_TYPE":0,"CLASSIFICATION_TYPE":"U","NORAD_CAT_ID":63162,"ELEMENT_SET_NO":999,"REV_AT_EPOCH":5849,"BSTAR":0.00034412326,"MEAN_MOTION_DOT":2.34e-6,"MEAN_MOTION_DDOT":0},{"OBJECT_NAME":"QIANFAN-77","OBJECT_ID":"2025-046E","EPOCH":"2026-03-05T06:00:53.387424","MEAN_MOTION":13.96174412,"ECCENTRICITY":0.00144361,"INCLINATION":88.9757,"RA_OF_ASC_NODE":308.9343,"ARG_OF_PERICENTER":175.5749,"MEAN_ANOMALY":184.5558,"EPHEMERIS_TYPE":0,"CLASSIFICATION_TYPE":"U","NORAD_CAT_ID":63163,"ELEMENT_SET_NO":999,"REV_AT_EPOCH":5996,"BSTAR":0.00033080075,"MEAN_MOTION_DOT":4.68e-6,"MEAN_MOTION_DDOT":0},{"OBJECT_NAME":"QIANFAN-78","OBJECT_ID":"2025-046F","EPOCH":"2026-03-05T06:26:52.539360","MEAN_MOTION":13.50998533,"ECCENTRICITY":0.0013202,"INCLINATION":88.976,"RA_OF_ASC_NODE":311.4667,"ARG_OF_PERICENTER":251.2816,"MEAN_ANOMALY":108.6903,"EPHEMERIS_TYPE":0,"CLASSIFICATION_TYPE":"U","NORAD_CAT_ID":63164,"ELEMENT_SET_NO":999,"REV_AT_EPOCH":5857,"BSTAR":0.00033758186,"MEAN_MOTION_DOT":2.3e-6,"MEAN_MOTION_DDOT":0},{"OBJECT_NAME":"QIANFAN-79","OBJECT_ID":"2025-046G","EPOCH":"2026-03-05T05:21:54.358848","MEAN_MOTION":13.51008611,"ECCENTRICITY":0.00130545,"INCLINATION":88.9765,"RA_OF_ASC_NODE":311.5821,"ARG_OF_PERICENTER":249.6164,"MEAN_ANOMALY":110.3585,"EPHEMERIS_TYPE":0,"CLASSIFICATION_TYPE":"U","NORAD_CAT_ID":63165,"ELEMENT_SET_NO":999,"REV_AT_EPOCH":5851,"BSTAR":0.00031038168,"MEAN_MOTION_DOT":2.12e-6,"MEAN_MOTION_DDOT":0},{"OBJECT_NAME":"QIANFAN-80","OBJECT_ID":"2025-046H","EPOCH":"2026-03-05T05:45:22.203648","MEAN_MOTION":13.50998187,"ECCENTRICITY":0.0011885,"INCLINATION":88.9761,"RA_OF_ASC_NODE":311.2851,"ARG_OF_PERICENTER":254.2923,"MEAN_ANOMALY":105.6917,"EPHEMERIS_TYPE":0,"CLASSIFICATION_TYPE":"U","NORAD_CAT_ID":63166,"ELEMENT_SET_NO":999,"REV_AT_EPOCH":5867,"BSTAR":0.0002976353,"MEAN_MOTION_DOT":2.04e-6,"MEAN_MOTION_DDOT":0},{"OBJECT_NAME":"QIANFAN-81","OBJECT_ID":"2025-046J","EPOCH":"2026-03-05T05:13:54.276384","MEAN_MOTION":13.50984158,"ECCENTRICITY":0.00129736,"INCLINATION":88.9761,"RA_OF_ASC_NODE":311.3551,"ARG_OF_PERICENTER":241.9825,"MEAN_ANOMALY":118.0014,"EPHEMERIS_TYPE":0,"CLASSIFICATION_TYPE":"U","NORAD_CAT_ID":63167,"ELEMENT_SET_NO":999,"REV_AT_EPOCH":5862,"BSTAR":0.00031107033,"MEAN_MOTION_DOT":2.13e-6,"MEAN_MOTION_DDOT":0},{"OBJECT_NAME":"QIANFAN-82","OBJECT_ID":"2025-046K","EPOCH":"2026-03-05T06:03:12.411072","MEAN_MOTION":13.50999597,"ECCENTRICITY":0.00110189,"INCLINATION":88.9761,"RA_OF_ASC_NODE":311.3957,"ARG_OF_PERICENTER":249.8165,"MEAN_ANOMALY":110.1802,"EPHEMERIS_TYPE":0,"CLASSIFICATION_TYPE":"U","NORAD_CAT_ID":63168,"ELEMENT_SET_NO":999,"REV_AT_EPOCH":5861,"BSTAR":0.00030821561,"MEAN_MOTION_DOT":2.11e-6,"MEAN_MOTION_DDOT":0},{"OBJECT_NAME":"QIANFAN-83","OBJECT_ID":"2025-046L","EPOCH":"2026-03-05T06:35:01.923648","MEAN_MOTION":13.6202085,"ECCENTRICITY":0.00124632,"INCLINATION":88.9761,"RA_OF_ASC_NODE":311.0075,"ARG_OF_PERICENTER":227.5204,"MEAN_ANOMALY":132.4901,"EPHEMERIS_TYPE":0,"CLASSIFICATION_TYPE":"U","NORAD_CAT_ID":63169,"ELEMENT_SET_NO":999,"REV_AT_EPOCH":5883,"BSTAR":0.00033492375,"MEAN_MOTION_DOT":2.7e-6,"MEAN_MOTION_DDOT":0},{"OBJECT_NAME":"QIANFAN-84","OBJECT_ID":"2025-046M","EPOCH":"2026-03-05T06:43:15.856032","MEAN_MOTION":13.50961214,"ECCENTRICITY":0.001404,"INCLINATION":88.9759,"RA_OF_ASC_NODE":311.5248,"ARG_OF_PERICENTER":246.0693,"MEAN_ANOMALY":113.8988,"EPHEMERIS_TYPE":0,"CLASSIFICATION_TYPE":"U","NORAD_CAT_ID":63170,"ELEMENT_SET_NO":999,"REV_AT_EPOCH":5854,"BSTAR":-0.00014992472,"MEAN_MOTION_DOT":-8.5e-7,"MEAN_MOTION_DDOT":0},{"OBJECT_NAME":"QIANFAN-85","OBJECT_ID":"2025-046N","EPOCH":"2026-03-05T06:38:43.791936","MEAN_MOTION":13.51002298,"ECCENTRICITY":0.00114371,"INCLINATION":88.9761,"RA_OF_ASC_NODE":311.3969,"ARG_OF_PERICENTER":248.4481,"MEAN_ANOMALY":111.5451,"EPHEMERIS_TYPE":0,"CLASSIFICATION_TYPE":"U","NORAD_CAT_ID":63171,"ELEMENT_SET_NO":999,"REV_AT_EPOCH":5861,"BSTAR":0.0002943228,"MEAN_MOTION_DOT":2.02e-6,"MEAN_MOTION_DDOT":0}]
