QIANFAN-69              
1 62799U 25016Q   26064.27892446  .00000063  00000+0  78634-4 0  9997
2 62799  88.9667  94.4087 0017953 105.4986 254.8150 13.51005337 58421
QIANFAN-70              
1 62800U 25016R   26064.22127676  .00000051  00000+0  59501-4 0  9990
2 62800  88.9688  94.5707 0017573  97.2075 263.1075 13.50997067 58374
QIANFAN-71              
1 62801U 25016S   26064.21710602  .00000050  00000+0  58080-4 0  9997
2 62801  88.9682  94.5455 0017841 108.8042 251.5046 13.50996564 58370
QIANFAN-72              
1 62802U 25016T   26064.23357402  .00000037  00000+0  38510-4 0  9996
2 62802  88.9672  94.5492 0021040 115.4996 244.8334 13.50996237 58360
QIANFAN-73              
1 63159U 25046A   26064.26043012  .00000194  00000+0  28195-3 0  9998
2 63159  88.9760 311.5007 0013156 244.1442 115.8353 13.50998300 58555
QIANFAN-74              
1 63160U 25046B   26064.24403046  .00000217  00000+0  31808-3 0  9996
2 63160  88.9760 311.3912 0001892  78.3634 281.7729 13.50998185 58612
QIANFAN-75              
1 63161U 25046C   26064.23116699  .00000080  00000+0  10525-3 0  9992
2 63161  88.9763 311.6273 0014334 248.0857 111.8771 13.51001204 58480
QIANFAN-76              
1 63162U 25046D   26064.22749753  .00000234  00000+0  34412-3 0  9997
2 63162  88.9761 311.6077 0011877 248.6259 111.3625 13.51014473 58498
QIANFAN-77              
1 63163U 25046E   26064.25061791  .00000468  00000+0  33080-3 0  9999
2 63163  88.9757 308.9343 0014436 175.5749 184.5558 13.96174412 59964
QIANFAN-78              
1 63164U 25046F   26064.26866365  .00000230  00000+0  33758-3 0  9990
2 63164  88.9760 311.4667 0013202 251.2816 108.6903 13.50998533 58579
QIANFAN-79              
1 63165U 25046G   26064.22354582  .00000212  00000+0  31038-3 0  9999
2 63165  88.9765 311.5821 0013054 249.6164 110.3585 13.51008611 58510
QIANFAN-80              
1 63166U 25046H   26064.23984032  .00000204  00000+0  29764-3 0  9994
2 63166  88.9761 311.2851 0011885 254.2923 105.6917 13.50998187 58670
QIANFAN-81              
1 63167U 25046J   26064.21798931  .00000213  00000+0  31107-3 0  9998
2 63167  88.9761 311.3551 0012973 241.9825 118.0014 13.50984158 58626
QIANFAN-82              
1 63168U 25046K   26064.25222698  .00000211  00000+0  30822-3 0  9996
2 63168  88.9761 311.3957 0011018 249.8165 110.1802 13.50999597 58610
QIANFAN-83              
1 63169U 25046L   26064.27432782  .00000270  00000+0  33492-3 0  9997
2 63169  88.9761 311.0075 0012463 227.5204 132.4901 13.62020850 58832
QIANFAN-84              
1 63170U 25046M   26064.28004463 -.00000085  00000+0 -14992-3 0  9991
2 63170  88.9759 311.5248 0014040 246.0693 113.8988 13.50961214 58540
QIANFAN-85              
1 63171U 25046N   26064.27689574  .00000202  00000+0  29432-3 0  9997
2 63171  88.9761 311.3969 0011437 248.4481 111.5451 13.51002298 58617
